norad_id,name,regime,epoch,line1,line2,inclination,eccentricity,mean_motion,raan,arg_pericenter,mean_anomaly
28082,CHINASAT 20,EGO,22220.58866279,1 28082U 03052A   22220.58866279 -.00000220  00000-0  00000-0 0    18\,2 28082   7.3563  61.4522 0007662  56.0976 222.4224  0.99113734 68425,7.3563,0.0007662,0.99113734,61.4522,56.0976,222.4224
28082,CHINASAT 20,EGO,22220.81716053,1 28082U 03052A   22220.81716053 -.00000227  00000-0  00000-0 0    15\,2 28082   7.3569  61.4509 0007656  56.2065 303.8464  0.99113780 68421,7.3569,0.0007656,0.9911378,61.4509,56.2065,303.8464
28082,CHINASAT 20,EGO,22221.59418319,1 28082U 03052A   22221.59418319 -.00000247  00000-0  00000-0 0    17\,2 28082   7.3587  61.4458 0007654  56.7264 220.5856  0.99113800 68432,7.3587,0.0007654,0.991138,61.4458,56.7264,220.5856
28082,CHINASAT 20,EGO,22221.84979997,1 28082U 03052A   22221.84979997 -.00000253  00000-0  00000+0 0  4020\,2 28082   7.3593  61.4444 0007642  56.8715 311.6502  0.99113838 68456,7.3593,0.0007642,0.99113838,61.4444,56.8715,311.6502
28082,CHINASAT 20,EGO,22222.43559545,1 28082U 03052A   22222.43559545 -.00000266  00000-0  00000-0 0    19\,2 28082   7.3607  61.4406 0007633  57.2777 160.2688  0.99113829 68445,7.3607,0.0007633,0.99113829,61.4406,57.2777,160.2688
28082,CHINASAT 20,EGO,22222.85674344,1 28082U 03052A   22222.85674344 -.00000275  00000-0  00000-0 0    10\,2 28082   7.3617  61.4380 0007611  57.5684 310.2534  0.99113860 68456,7.3617,0.0007611,0.9911386,61.438,57.5684,310.2534
28082,CHINASAT 20,EGO,22223.58907000,1 28082U 03052A   22223.58907000 -.00000288  00000-0  00000-0 0    13\,2 28082   7.3634  61.4331 0007586  58.0839 211.0486  0.99113835 68456,7.3634,0.0007586,0.99113835,61.4331,58.0839,211.0486
28082,CHINASAT 20,EGO,22224.07902847,1 28082U 03052A   22224.07902847 -.00000296  00000-0  00000+0 0  4036\,2 28082   7.3646  61.4299 0007549  58.4124  25.5485  0.99113859 68477,7.3646,0.0007549,0.99113859,61.4299,58.4124,25.5485
28082,CHINASAT 20,EGO,22224.41630174,1 28082U 03052A   22224.41630174 -.00000300  00000-0  00000-0 0    16\,2 28082   7.3654  61.4280 0007538  58.6225 145.6846  0.99113818 68467,7.3654,0.0007538,0.99113818,61.428,58.6225,145.6846
28082,CHINASAT 20,EGO,22224.78817766,1 28082U 03052A   22224.78817766 -.00000304  00000-0  00000-0 0    14\,2 28082   7.3663  61.4257 0007516  58.9079 278.0932  0.99113807 68462,7.3663,0.0007516,0.99113807,61.4257,58.9079,278.0932
28082,CHINASAT 20,EGO,22225.60039209,1 28082U 03052A   22225.60039209 -.00000311  00000-0  00000-0 0    12\,2 28082   7.3681  61.4202 0007467  59.4382 207.3794  0.99113751 68470,7.3681,0.0007467,0.99113751,61.4202,59.4382,207.3794
28082,CHINASAT 20,EGO,22226.53230639,1 28082U 03052A   22226.53230639 -.00000314  00000-0  00000-0 0    18\,2 28082   7.3702  61.4143 0007401  60.0127 179.3325  0.99113667 68486,7.3702,0.0007401,0.99113667,61.4143,60.0127,179.3325
28082,CHINASAT 20,EGO,22226.87328189,1 28082U 03052A   22226.87328189 -.00000314  00000-0  00000-0 0    13\,2 28082   7.3710  61.4121 0007378  60.2438 300.7691  0.99113630 68498,7.371,0.0007378,0.9911363,61.4121,60.2438,300.7691
28082,CHINASAT 20,EGO,22227.28987602,1 28082U 03052A   22227.28987602 -.00000313  00000-0  00000-0 0    19\,2 28082   7.3719  61.4093 0007337  60.4841  89.1785  0.99113599 68496,7.3719,0.0007337,0.99113599,61.4093,60.4841,89.1785
28082,CHINASAT 20,EGO,22228.26442281,1 28082U 03052A   22228.26442281 -.00000308  00000-0  00000-0 0    11\,2 28082   7.3740  61.4025 0007267  61.0464  76.3557  0.99113430 68506,7.374,0.0007267,0.9911343,61.4025,61.0464,76.3557
28082,CHINASAT 20,EGO,22229.19270483,1 28082U 03052A   22229.19270483 -.00000299  00000-0  00000+0 0  4053\,2 28082   7.3760  61.3956 0007203  61.5095  47.1234  0.99113206 68526,7.376,0.0007203,0.99113206,61.3956,61.5095,47.1234
28082,CHINASAT 20,EGO,22229.27604277,1 28082U 03052A   22229.27604277 -.00000298  00000-0  00000-0 0    16\,2 28082   7.3761  61.3950 0007194  61.5512  76.8183  0.99113191 68518,7.3761,0.0007194,0.99113191,61.395,61.5512,76.8183
28082,CHINASAT 20,EGO,22230.53040347,1 28082U 03052A   22230.53040347 -.00000280  00000-0  00000-0 0    10\,2 28082   7.3787  61.3853 0007104  62.0003 163.9507  0.99112793 68526,7.3787,0.0007104,0.99112793,61.3853,62.0003,163.9507
28082,CHINASAT 20,EGO,22230.88171751,1 28082U 03052A   22230.88171751 -.00000274  00000-0  00000-0 0    15\,2 28082   7.3794  61.3827 0007093  62.1022 289.2046  0.99112655 68521,7.3794,0.0007093,0.99112655,61.3827,62.1022,289.2046
28082,CHINASAT 20,EGO,22231.45826531,1 28082U 03052A   22231.45826531 -.00000263  00000-0  00000-0 0    10\,2 28082   7.3806  61.3781 0007049  62.2625 134.7673  0.99112450 68539,7.3806,0.0007049,0.9911245,61.3781,62.2625,134.7673
28082,CHINASAT 20,EGO,22231.74838868,1 28082U 03052A   22231.74838868 -.00000257  00000-0  00000-0 0    11\,2 28082   7.3812  61.3761 0007036  62.2925 238.2585  0.99112307 68536,7.3812,0.0007036,0.99112307,61.3761,62.2925,238.2585
28082,CHINASAT 20,EGO,22232.45671359,1 28082U 03052A   22232.45671359 -.00000242  00000-0  00000-0 0    14\,2 28082   7.3826  61.3703 0006999  62.4981 130.7957  0.99112014 68543,7.3826,0.0006999,0.99112014,61.3703,62.4981,130.7957
28082,CHINASAT 20,EGO,22232.81299279,1 28082U 03052A   22232.81299279 -.00000233  00000-0  00000-0 0    11\,2 28082   7.3833  61.3676 0006985  62.4946 257.9255  0.99111827 68540,7.3833,0.0006985,0.99111827,61.3676,62.4946,257.9255
28082,CHINASAT 20,EGO,22233.46255310,1 28082U 03052A   22233.46255310 -.00000217  00000-0  00000-0 0  4073\,2 28082   7.3846  61.3624 0006961  62.6093 129.5843  0.99111527 68551,7.3846,0.0006961,0.99111527,61.3624,62.6093,129.5843
28082,CHINASAT 20,EGO,22234.16419507,1 28082U 03052A   22234.16419507 -.00000199  00000-0  00000-0 0    10\,2 28082   7.3860  61.3570 0006943  62.6372  19.9124  0.99111152 68566,7.386,0.0006943,0.99111152,61.357,62.6372,19.9124
28082,CHINASAT 20,EGO,22234.46614139,1 28082U 03052A   22234.46614139 -.00000190  00000-0  00000-0 0    12\,2 28082   7.3866  61.3544 0006934  62.6492 127.6391  0.99111007 68568,7.3866,0.0006934,0.99111007,61.3544,62.6492,127.6391
28082,CHINASAT 20,EGO,22235.46979486,1 28082U 03052A   22235.46979486 -.00000162  00000-0  00000-0 0    11\,2 28082   7.3885  61.3464 0006915  62.6466 125.7578  0.99110472 68572,7.3885,0.0006915,0.99110472,61.3464,62.6466,125.7578
28082,CHINASAT 20,EGO,22235.87134662,1 28082U 03052A   22235.87134662 -.00000150  00000-0  00000-0 0    12\,2 28082   7.3893  61.3433 0006911  62.5112 269.1712  0.99110238 68573,7.3893,0.0006911,0.99110238,61.3433,62.5112,269.1712
28082,CHINASAT 20,EGO,22236.17368396,1 28082U 03052A   22236.17368396 -.00000141  00000-0  00000-0 0    19\,2 28082   7.3899  61.3410 0006910  62.5355  17.0240  0.99110082 68586,7.3899,0.000691,0.99110082,61.341,62.5355,17.024
28082,CHINASAT 20,EGO,22236.89908505,1 28082U 03052A   22236.89908505 -.00000118  00000-0  00000-0 0    14\,2 28082   7.3913  61.3350 0006911  62.4050 275.9846  0.99109696 68584,7.3913,0.0006911,0.99109696,61.335,62.405,275.9846
28082,CHINASAT 20,EGO,22237.47710352,1 28082U 03052A   22237.47710352 -.00000100  00000-0  00000+0 0  4092\,2 28082   7.3924  61.3302 0006914  62.4553 122.1764  0.99109414 68607,7.3924,0.0006914,0.99109414,61.3302,62.4553,122.1764
28082,CHINASAT 20,EGO,22237.85234711,1 28082U 03052A   22237.85234711 -.00000089  00000-0  00000-0 0    19\,2 28082   7.3932  61.3271 0006920  62.3111 256.2104  0.99109220 68597,7.3932,0.000692,0.9910922,61.3271,62.3111,256.2104
28082,CHINASAT 20,EGO,22238.48040623,1 28082U 03052A   22238.48040623 -.00000070  00000-0  00000-0 0    16\,2 28082   7.3944  61.3218 0006928  62.3104 120.3070  0.99108923 68605,7.3944,0.0006928,0.99108923,61.3218,62.3104,120.307
28082,CHINASAT 20,EGO,22238.79805362,1 28082U 03052A   22238.79805362 -.00000060  00000-0  00000-0 0    18\,2 28082   7.3951  61.3193 0006937  62.2141 233.7416  0.99108783 68602,7.3951,0.0006937,0.99108783,61.3193,62.2141,233.7416
28082,CHINASAT 20,EGO,22239.48406500,1 28082U 03052A   22239.48406500 -.00000040  00000-0  00000-0 0    14\,2 28082   7.3964  61.3136 0006951  62.1887 118.5396  0.99108478 68614,7.3964,0.0006951,0.99108478,61.3136,62.1887,118.5396
28082,CHINASAT 20,EGO,22239.90152299,1 28082U 03052A   22239.90152299 -.00000028  00000-0  00000-0 0    10\,2 28082   7.3973  61.3103 0006967  62.0728 267.6063  0.99108317 68617,7.3973,0.0006967,0.99108317,61.3103,62.0728,267.6063
28082,CHINASAT 20,EGO,22240.48766429,1 28082U 03052A   22240.48766429 -.00000012  00000-0  00000-0 0    14\,2 28082   7.3985  61.3055 0006982  62.0646 116.7519  0.99108091 68622,7.3985,0.0006982,0.99108091,61.3055,62.0646,116.7519
28082,CHINASAT 20,EGO,22240.82820978,1 28082U 03052A   22240.82820978 -.00000003  00000-0  00000-0 0    12\,2 28082   7.3992  61.3028 0006994  62.0265 238.2975  0.99107989 68621,7.3992,0.0006994,0.99107989,61.3028,62.0265,238.2975
28082,CHINASAT 20,EGO,22241.06107404,1 28082U 03052A   22241.06107404  .00000003  00000-0  00000-0 0    10\,2 28082   7.3997  61.3010 0007005  61.9551 321.4554  0.99107904 68633,7.3997,0.0007005,0.99107904,61.301,61.9551,321.4554
28082,CHINASAT 20,EGO,22241.88694728,1 28082U 03052A   22241.88694728  .00000023  00000-0  00000-0 0    12\,2 28082   7.4015  61.2944 0007032  61.9676 256.1161  0.99107683 68630,7.4015,0.0007032,0.99107683,61.2944,61.9676,256.1161
28082,CHINASAT 20,EGO,22242.06470098,1 28082U 03052A   22242.06470098  .00000027  00000-0  00000-0 0    19\,2 28082   7.4018  61.2930 0007042  61.9189 319.5876  0.99107630 68648,7.4018,0.0007042,0.9910763,61.293,61.9189,319.5876
28082,CHINASAT 20,EGO,22242.54077073,1 28082U 03052A   22242.54077073  .00000037  00000-0  00000-0 0    19\,2 28082   7.4029  61.2893 0007057  61.9609 129.4079  0.99107513 68644,7.4029,0.0007057,0.99107513,61.2893,61.9609,129.4079
